{
  "type": "FeatureCollection",
  "features": [
    {
      "type": "Feature",
      "properties": {
        "norad_id": 31307,
        "name": "GALAXY 17 (G-17)",
        "group": "intelsat",
        "lat": 0.5209410962875085,
        "lon": -110.20580589142048,
        "alt_km": 35761.305628415175,
        "timestamp": "2025-12-13T16:48:32.380893+00:00",
        "meta_object_name": "GALAXY 17 (G-17)",
        "meta_object_id": "2007-016B",
        "meta_epoch": "2025-12-12T23:20:52.822176",
        "meta_mean_motion": 1.00272432,
        "meta_eccentricity": 0.00058137,
        "meta_inclination": 2.5009,
        "meta_ra_of_asc_node": 82.283,
        "meta_arg_of_pericenter": 164.6763,
        "meta_mean_anomaly": 100.1911,
        "meta_ephemeris_type": 0,
        "meta_classification_type": "U",
        "meta_norad_cat_id": 31307,
        "meta_element_set_no": 999,
        "meta_rev_at_epoch": 6793,
        "meta_bstar": 0,
        "meta_mean_motion_dot": -1.94e-06,
        "meta_mean_motion_ddot": 0,
        "tle_line1": "1 31307U 07016B   25346.97283359 -.00000194  00000+0  00000+0 0  9997",
        "tle_line2": "2 31307   2.5009  82.2830 0005813 164.6763 100.1911  1.00272432 67934"
      },
      "geometry": {
        "type": "Point",
        "coordinates": [
          -110.20580589142048,
          0.5209410962875085
        ]
      }
    },
    {
      "type": "Feature",
      "properties": {
        "norad_id": 31862,
        "name": "DIRECTV 10",
        "group": "intelsat",
        "lat": 0.0038671263273145134,
        "lon": -128.03005765622683,
        "alt_km": 35785.07233271913,
        "timestamp": "2025-12-13T16:48:32.380905+00:00",
        "meta_object_name": "DIRECTV 10",
        "meta_object_id": "2007-032A",
        "meta_epoch": "2025-12-12T23:15:53.301024",
        "meta_mean_motion": 1.0027112,
        "meta_eccentricity": 2.941e-05,
        "meta_inclination": 0.0079,
        "meta_ra_of_asc_node": 209.5146,
        "meta_arg_of_pericenter": 8.2783,
        "meta_mean_anomaly": 110.3026,
        "meta_ephemeris_type": 0,
        "meta_classification_type": "U",
        "meta_norad_cat_id": 31862,
        "meta_element_set_no": 999,
        "meta_rev_at_epoch": 4372,
        "meta_bstar": 0,
        "meta_mean_motion_dot": -9e-07,
        "meta_mean_motion_ddot": 0,
        "tle_line1": "1 31862U 07032A   25346.96936691 -.00000090  00000+0  00000+0 0  9999",
        "tle_line2": "2 31862   0.0079 209.5146 0000294   8.2783 110.3026  1.00271120 43721"
      },
      "geometry": {
        "type": "Point",
        "coordinates": [
          -128.03005765622683,
          0.0038671263273145134
        ]
      }
    },
    {
      "type": "Feature",
      "properties": {
        "norad_id": 32253,
        "name": "INTELSAT 11 (IS-11)",
        "group": "intelsat",
        "lat": 2.7781647428605463,
        "lon": -163.84279284363274,
        "alt_km": 36108.06448247899,
        "timestamp": "2025-12-13T16:48:32.380931+00:00",
        "meta_object_name": "INTELSAT 11 (IS-11)",
        "meta_object_id": "2007-044B",
        "meta_epoch": "2025-12-12T14:25:59.773728",
        "meta_mean_motion": 0.99048607,
        "meta_eccentricity": 0.00088867,
        "meta_inclination": 3.0801,
        "meta_ra_of_asc_node": 80.9782,
        "meta_arg_of_pericenter": 165.8662,
        "meta_mean_anomaly": 277.4834,
        "meta_ephemeris_type": 0,
        "meta_classification_type": "U",
        "meta_norad_cat_id": 32253,
        "meta_element_set_no": 999,
        "meta_rev_at_epoch": 6660,
        "meta_bstar": 0,
        "meta_mean_motion_dot": 8e-07,
        "meta_mean_motion_ddot": 0,
        "tle_line1": "1 32253U 07044B   25346.60138627  .00000080  00000+0  00000+0 0  9999",
        "tle_line2": "2 32253   3.0801  80.9782 0008886 165.8662 277.4834  0.99048607 66603"
      },
      "geometry": {
        "type": "Point",
        "coordinates": [
          -163.84279284363274,
          2.7781647428605463
        ]
      }
    },
    {
      "type": "Feature",
      "properties": {
        "norad_id": 32388,
        "name": "HORIZONS-2",
        "group": "intelsat",
        "lat": 0.054754473350705296,
        "lon": -99.05792696122184,
        "alt_km": 35766.49166096596,
        "timestamp": "2025-12-13T16:48:32.380946+00:00",
        "meta_object_name": "HORIZONS-2",
        "meta_object_id": "2007-063B",
        "meta_epoch": "2025-12-12T23:24:07.510752",
        "meta_mean_motion": 1.00269799,
        "meta_eccentricity": 0.00048875,
        "meta_inclination": 2.1223,
        "meta_ra_of_asc_node": 82.959,
        "meta_arg_of_pericenter": 190.3072,
        "meta_mean_anomaly": 85.8782,
        "meta_ephemeris_type": 0,
        "meta_classification_type": "U",
        "meta_norad_cat_id": 32388,
        "meta_element_set_no": 999,
        "meta_rev_at_epoch": 6594,
        "meta_bstar": 0,
        "meta_mean_motion_dot": -2.41e-06,
        "meta_mean_motion_ddot": 0,
        "tle_line1": "1 32388U 07063B   25346.97508693 -.00000241  00000+0  00000+0 0  9993",
        "tle_line2": "2 32388   2.1223  82.9590 0004887 190.3072  85.8782  1.00269799 65943"
      },
      "geometry": {
        "type": "Point",
        "coordinates": [
          -99.05792696122184,
          0.054754473350705296
        ]
      }
    },
    {
      "type": "Feature",
      "properties": {
        "norad_id": 32729,
        "name": "DIRECTV 11",
        "group": "intelsat",
        "lat": -0.010127991478444887,
        "lon": -124.4320495874899,
        "alt_km": 35785.97085055371,
        "timestamp": "2025-12-13T16:48:32.380959+00:00",
        "meta_object_name": "DIRECTV 11",
        "meta_object_id": "2008-013A",
        "meta_epoch": "2025-12-12T21:34:07.285152",
        "meta_mean_motion": 1.00271941,
        "meta_eccentricity": 2.766e-05,
        "meta_inclination": 0.0293,
        "meta_ra_of_asc_node": 167.0626,
        "meta_arg_of_pericenter": 342.976,
        "meta_mean_anomaly": 156.139,
        "meta_ephemeris_type": 0,
        "meta_classification_type": "U",
        "meta_norad_cat_id": 32729,
        "meta_element_set_no": 999,
        "meta_rev_at_epoch": 4372,
        "meta_bstar": 0,
        "meta_mean_motion_dot": -1.13e-06,
        "meta_mean_motion_ddot": 0,
        "tle_line1": "1 32729U 08013A   25346.89869543 -.00000113  00000+0  00000+0 0  9991",
        "tle_line2": "2 32729   0.0293 167.0626 0000276 342.9760 156.1390  1.00271941 43729"
      },
      "geometry": {
        "type": "Point",
        "coordinates": [
          -124.4320495874899,
          -0.010127991478444887
        ]
      }
    },
    {
      "type": "Feature",
      "properties": {
        "norad_id": 32951,
        "name": "GALAXY 18 (G-18)",
        "group": "intelsat",
        "lat": -0.013200992386589169,
        "lon": -148.28053536277628,
        "alt_km": 35779.07091966815,
        "timestamp": "2025-12-13T16:48:32.380970+00:00",
        "meta_object_name": "GALAXY 18 (G-18)",
        "meta_object_id": "2008-024A",
        "meta_epoch": "2025-12-12T23:10:01.362720",
        "meta_mean_motion": 1.00271762,
        "meta_eccentricity": 0.00029211,
        "meta_inclination": 0.0012,
        "meta_ra_of_asc_node": 2.4405,
        "meta_arg_of_pericenter": 265.0241,
        "meta_mean_anomaly": 38.9366,
        "meta_ephemeris_type": 0,
        "meta_classification_type": "U",
        "meta_norad_cat_id": 32951,
        "meta_element_set_no": 999,
        "meta_rev_at_epoch": 4398,
        "meta_bstar": 0,
        "meta_mean_motion_dot": 3.8e-07,
        "meta_mean_motion_ddot": 0,
        "tle_line1": "1 32951U 08024A   25346.96529355  .00000038  00000+0  00000+0 0  9997",
        "tle_line2": "2 32951   0.0012   2.4405 0002921 265.0241  38.9366  1.00271762 43989"
      },
      "geometry": {
        "type": "Point",
        "coordinates": [
          -148.28053536277628,
          -0.013200992386589169
        ]
      }
    },
    {
      "type": "Feature",
      "properties": {
        "norad_id": 33153,
        "name": "INTELSAT 25 (IS-25)",
        "group": "intelsat",
        "lat": -1.4647941699150502,
        "lon": -56.7165067216038,
        "alt_km": 35770.338624896656,
        "timestamp": "2025-12-13T16:48:32.380982+00:00",
        "meta_object_name": "INTELSAT 25 (IS-25)",
        "meta_object_id": "2008-034A",
        "meta_epoch": "2025-12-12T23:36:13.851360",
        "meta_mean_motion": 1.00271805,
        "meta_eccentricity": 0.00049944,
        "meta_inclination": 2.2286,
        "meta_ra_of_asc_node": 82.6464,
        "meta_arg_of_pericenter": 179.7951,
        "meta_mean_anomaly": 142.0467,
        "meta_ephemeris_type": 0,
        "meta_classification_type": "U",
        "meta_norad_cat_id": 33153,
        "meta_element_set_no": 999,
        "meta_rev_at_epoch": 6382,
        "meta_bstar": 0,
        "meta_mean_motion_dot": -2.11e-06,
        "meta_mean_motion_ddot": 0,
        "tle_line1": "1 33153U 08034A   25346.98349365 -.00000211  00000+0  00000+0 0  9990",
        "tle_line2": "2 33153   2.2286  82.6464 0004994 179.7951 142.0467  1.00271805 63829"
      },
      "geometry": {
        "type": "Point",
        "coordinates": [
          -56.7165067216038,
          -1.4647941699150502
        ]
      }
    }
  ]
}